{"type": "FeatureCollection", "features": [ {"type": "Feature", "properties": {"norad_id": 39620, "name": "COSMOS 2492 (754)", "group": "gnss", "lat": 45.15245201364558, "lon": 112.67082043230306, "alt_km": 19160.921716448353, "timestamp": "2025-12-17T21:39:45.932965+00:00", "meta": {"OBJECT_NAME": "COSMOS 2492 (754)", "OBJECT_ID": "2014-012A", "EPOCH": "2025-12-16T07:50:46.447872", "MEAN_MOTION": 2.13103282, "ECCENTRICITY": 0.00142536, "INCLINATION": 65.4058, "RA_OF_ASC_NODE": 320.149, "ARG_OF_PERICENTER": 313.159, "MEAN_ANOMALY": 46.7158, "EPHEMERIS_TYPE": 0, "CLASSIFICATION_TYPE": "U", "NORAD_CAT_ID": 39620, "ELEMENT_SET_NO": 999, "REV_AT_EPOCH": 9134, "BSTAR": 0, "MEAN_MOTION_DOT": -6.8e-07, "MEAN_MOTION_DDOT": 0}, "tle": {"line1": "1 39620U 14012A   25350.32692648 -.00000068  00000+0  00000+0 0  9996", "line2": "2 39620  65.4058 320.1490 0014253 313.1590  46.7158  2.13103282 91346"}}, "geometry": {"type": "Point", "coordinates": [112.67082043230306, 45.15245201364558]}}, {"type": "Feature", "properties": {"norad_id": 39635, "name": "IRNSS-1B", "group": "gnss", "lat": -19.625767322889093, "lon": 103.06998849006351, "alt_km": 35718.7932528049, "timestamp": "2025-12-17T21:39:45.932975+00:00", "meta": {"OBJECT_NAME": "IRNSS-1B", "OBJECT_ID": "2014-017A", "EPOCH": "2025-12-16T18:45:22.546080", "MEAN_MOTION": 1.00269874, "ECCENTRICITY": 0.00189725, "INCLINATION": 29.2588, "RA_OF_ASC_NODE": 243.5372, "ARG_OF_PERICENTER": 251.6767, "MEAN_ANOMALY": 287.2039, "EPHEMERIS_TYPE": 0, "CLASSIFICATION_TYPE": "U", "NORAD_CAT_ID": 39635, "ELEMENT_SET_NO": 999, "REV_AT_EPOCH": 4296, "BSTAR": 0, "MEAN_MOTION_DOT": 1.41e-06, "MEAN_MOTION_DDOT": 0}, "tle": {"line1": "1 39635U 14017A   25350.78151095  .00000141  00000+0  00000+0 0  9994", "line2": "2 39635  29.2588 243.5372 0018972 251.6767 287.2039  1.00269874 42968"}}, "geometry": {"type": "Point", "coordinates": [103.06998849006351, -19.625767322889093]}}, {"type": "Feature", "properties": {"norad_id": 39727, "name": "LUCH 5V (SDCM/PRN 141)", "group": "gnss", "lat": 4.531018702584006, "lon": 146.31147339536233, "alt_km": 35799.74189809969, "timestamp": "2025-12-17T21:39:45.932987+00:00", "meta": {"OBJECT_NAME": "LUCH 5V (SDCM/PRN 141)", "OBJECT_ID": "2014-023A", "EPOCH": "2025-12-17T16:05:55.296096", "MEAN_MOTION": 1.00267844, "ECCENTRICITY": 0.00043276, "INCLINATION": 4.6814, "RA_OF_ASC_NODE": 71.4933, "ARG_OF_PERICENTER": 210.7979, "MEAN_ANOMALY": 140.422, "EPHEMERIS_TYPE": 0, "CLASSIFICATION_TYPE": "U", "NORAD_CAT_ID": 39727, "ELEMENT_SET_NO": 999, "REV_AT_EPOCH": 4253, "BSTAR": 0, "MEAN_MOTION_DOT": -2.47e-06, "MEAN_MOTION_DDOT": 0}, "tle": {"line1": "1 39727U 14023A   25351.67077889 -.00000247  00000+0  00000+0 0  9998", "line2": "2 39727   4.6814  71.4933 0004327 210.7979 140.4220  1.00267844 42530"}}, "geometry": {"type": "Point", "coordinates": [146.31147339536233, 4.531018702584006]}}, {"type": "Feature", "properties": {"norad_id": 39741, "name": "GPS BIIF-6  (PRN 06)", "group": "gnss", "lat": -43.17308535247261, "lon": -59.708655841136945, "alt_km": 20086.114367021197, "timestamp": "2025-12-17T21:39:45.932997+00:00", "meta": {"OBJECT_NAME": "GPS BIIF-6  (PRN 06)", "OBJECT_ID": "2014-026A", "EPOCH": "2025-12-16T11:34:54.885216", "MEAN_MOTION": 2.00561186, "ECCENTRICITY": 0.00392879, "INCLINATION": 56.5821, "RA_OF_ASC_NODE": 338.6307, "ARG_OF_PERICENTER": 318.9019, "MEAN_ANOMALY": 40.8126, "EPHEMERIS_TYPE": 0, "CLASSIFICATION_TYPE": "U", "NORAD_CAT_ID": 39741, "ELEMENT_SET_NO": 999, "REV_AT_EPOCH": 8487, "BSTAR": 0, "MEAN_MOTION_DOT": -8.7e-07, "MEAN_MOTION_DDOT": 0}, "tle": {"line1": "1 39741U 14026A   25350.48257969 -.00000087  00000+0  00000+0 0  9996", "line2": "2 39741  56.5821 338.6307 0039287 318.9019  40.8126  2.00561186 84870"}}, "geometry": {"type": "Point", "coordinates": [-59.708655841136945, -43.17308535247261]}}, {"type": "Feature", "properties": {"norad_id": 40001, "name": "COSMOS 2500 (755)", "group": "gnss", "lat": -2.939309015294913, "lon": -41.509708841916755, "alt_km": 19145.71978732171, "timestamp": "2025-12-17T21:39:45.933008+00:00", "meta": {"OBJECT_NAME": "COSMOS 2500 (755)", "OBJECT_ID": "2014-032A", "EPOCH": "2025-12-16T23:14:23.843328", "MEAN_MOTION": 2.13106023, "ECCENTRICITY": 0.00080797, "INCLINATION": 65.3407, "RA_OF_ASC_NODE": 319.8884, "ARG_OF_PERICENTER": 219.086, "MEAN_ANOMALY": 140.8487, "EPHEMERIS_TYPE": 0, "CLASSIFICATION_TYPE": "U", "NORAD_CAT_ID": 40001, "ELEMENT_SET_NO": 999, "REV_AT_EPOCH": 8957, "BSTAR": 0, "MEAN_MOTION_DOT": -6.8e-07, "MEAN_MOTION_DDOT": 0}, "tle": {"line1": "1 40001U 14032A   25350.96833152 -.00000068  00000+0  00000+0 0  9990", "line2": "2 40001  65.3407 319.8884 0008079 219.0860 140.8487  2.13106023 89572"}}, "geometry": {"type": "Point", "coordinates": [-41.509708841916755, -2.939309015294913]}}, {"type": "Feature", "properties": {"norad_id": 40105, "name": "GPS BIIF-7  (PRN 09)", "group": "gnss", "lat": -47.08319096536353, "lon": -36.05775854918032, "alt_km": 20233.67095478641, "timestamp": "2025-12-17T21:39:45.933018+00:00", "meta": {"OBJECT_NAME": "GPS BIIF-7  (PRN 09)", "OBJECT_ID": "2014-045A", "EPOCH": "2025-12-15T01:46:50.034144", "MEAN_MOTION": 2.00572752, "ECCENTRICITY": 0.00326343, "INCLINATION": 55.2306, "RA_OF_ASC_NODE": 95.8057, "ARG_OF_PERICENTER": 119.9544, "MEAN_ANOMALY": 240.3532, "EPHEMERIS_TYPE": 0, "CLASSIFICATION_TYPE": "U", "NORAD_CAT_ID": 40105, "ELEMENT_SET_NO": 999, "REV_AT_EPOCH": 8238, "BSTAR": 0, "MEAN_MOTION_DOT": -3.6e-07, "MEAN_MOTION_DDOT": 0}, "tle": {"line1": "1 40105U 14045A   25349.07419021 -.00000036  00000+0  00000+0 0  9999", "line2": "2 40105  55.2306  95.8057 0032634 119.9544 240.3532  2.00572752 82388"}}, "geometry": {"type": "Point", "coordinates": [-36.05775854918032, -47.08319096536353]}}, {"type": "Feature", "properties": {"norad_id": 40128, "name": "GSAT0201 (GALILEO 5)", "group": "gnss", "lat": 44.04059642514228, "lon": -22.25567111709532, "alt_km": 22088.202320513195, "timestamp": "2025-12-17T21:39:45.933029+00:00", "meta": {"OBJECT_NAME": "GSAT0201 (GALILEO 5)", "OBJECT_ID": "2014-050A", "EPOCH": "2025-12-14T00:08:14.916480", "MEAN_MOTION": 1.85519648, "ECCENTRICITY": 0.16480052, "INCLINATION": 49.0753, "RA_OF_ASC_NODE": 281.012, "ARG_OF_PERICENTER": 172.3262, "MEAN_ANOMALY": 190.5827, "EPHEMERIS_TYPE": 0, "CLASSIFICATION_TYPE": "U", "NORAD_CAT_ID": 40128, "ELEMENT_SET_NO": 999, "REV_AT_EPOCH": 7488, "BSTAR": 0, "MEAN_MOTION_DOT": -9.9e-07, "MEAN_MOTION_DDOT": 0}, "tle": {"line1": "1 40128U 14050A   25348.00572820 -.00000099  00000+0  00000+0 0  9998", "line2": "2 40128  49.0753 281.0120 1648005 172.3262 190.5827  1.85519648 74882"}}, "geometry": {"type": "Point", "coordinates": [-22.25567111709532, 44.04059642514228]}}, {"type": "Feature", "properties": {"norad_id": 40129, "name": "GSAT0202 (GALILEO 6)", "group": "gnss", "lat": -44.57089708009571, "lon": -138.6187799960816, "alt_km": 23183.571733747332, "timestamp": "2025-12-17T21:39:45.933039+00:00", "meta": {"OBJECT_NAME": "GSAT0202 (GALILEO 6)", "OBJECT_ID": "2014-050B", "EPOCH": "2025-12-14T06:17:14.023104", "MEAN_MOTION": 1.85520414, "ECCENTRICITY": 0.16487132, "INCLINATION": 49.0906, "RA_OF_ASC_NODE": 280.0852, "ARG_OF_PERICENTER": 173.0839, "MEAN_ANOMALY": 189.5459, "EPHEMERIS_TYPE": 0, "CLASSIFICATION_TYPE": "U", "NORAD_CAT_ID": 40129, "ELEMENT_SET_NO": 999, "REV_AT_EPOCH": 7705, "BSTAR": 0, "MEAN_MOTION_DOT": -9.7e-07, "MEAN_MOTION_DDOT": 0}, "tle": {"line1": "1 40129U 14050B   25348.26196786 -.00000097  00000+0  00000+0 0  9998", "line2": "2 40129  49.0906 280.0852 1648713 173.0839 189.5459  1.85520414 77052"}}, "geometry": {"type": "Point", "coordinates": [-138.6187799960816, -44.57089708009571]}}, {"type": "Feature", "properties": {"norad_id": 40269, "name": "IRNSS-1C", "group": "gnss", "lat": 4.088372072184874, "lon": 134.6515265511858, "alt_km": 35726.79166026014, "timestamp": "2025-12-17T21:39:45.933091+00:00", "meta": {"OBJECT_NAME": "IRNSS-1C", "OBJECT_ID": "2014-061A", "EPOCH": "2025-12-16T22:29:51.732384", "MEAN_MOTION": 1.00274527, "ECCENTRICITY": 0.00180898, "INCLINATION": 6.052, "RA_OF_ASC_NODE": 92.5383, "ARG_OF_PERICENTER": 1.5445, "MEAN_ANOMALY": 52.1589, "EPHEMERIS_TYPE": 0, "CLASSIFICATION_TYPE": "U", "NORAD_CAT_ID": 40269, "ELEMENT_SET_NO": 999, "REV_AT_EPOCH": 4086, "BSTAR": 0, "MEAN_MOTION_DOT": -1.42e-06, "MEAN_MOTION_DDOT": 0}, "tle": {"line1": "1 40269U 14061A   25350.93740431 -.00000142  00000+0  00000+0 0  9995", "line2": "2 40269   6.0520  92.5383 0018089   1.5445  52.1589  1.00274527 40867"}}, "geometry": {"type": "Point", "coordinates": [134.6515265511858, 4.088372072184874]}}, {"type": "Feature", "properties": {"norad_id": 40294, "name": "GPS BIIF-8  (PRN 03)", "group": "gnss", "lat": -24.48982387619778, "lon": 20.66919997856806, "alt_km": 20208.808112343566, "timestamp": "2025-12-17T21:39:45.933102+00:00", "meta": {"OBJECT_NAME": "GPS BIIF-8  (PRN 03)", "OBJECT_ID": "2014-068A", "EPOCH": "2025-12-16T22:42:57.008160", "MEAN_MOTION": 2.00565217, "ECCENTRICITY": 0.00607888, "INCLINATION": 56.8609, "RA_OF_ASC_NODE": 37.9832, "ARG_OF_PERICENTER": 69.0803, "MEAN_ANOMALY": 291.6294, "EPHEMERIS_TYPE": 0, "CLASSIFICATION_TYPE": "U", "NORAD_CAT_ID": 40294, "ELEMENT_SET_NO": 999, "REV_AT_EPOCH": 8155, "BSTAR": 0, "MEAN_MOTION_DOT": -7.8e-07, "MEAN_MOTION_DDOT": 0}, "tle": {"line1": "1 40294U 14068A   25350.94649315 -.00000078  00000+0  00000+0 0  9998", "line2": "2 40294  56.8609  37.9832 0060788  69.0803 291.6294  2.00565217 81552"}}, "geometry": {"type": "Point", "coordinates": [20.66919997856806, -24.48982387619778]}}]}